{
  "type": "FeatureCollection",
  "features": [
    {
      "type": "Feature",
      "properties": {
        "norad_id": 66477,
        "name": "STARLINK-35354",
        "group": "last-30-days",
        "lat": 21.899748820459124,
        "lon": -75.42193793331035,
        "alt_km": 374.6989864247889,
        "timestamp": "2025-12-02T15:49:05.948778+00:00",
        "meta_object_name": "STARLINK-35354",
        "meta_object_id": "2025-262X",
        "meta_epoch": "2025-12-02T06:00:02.999808",
        "meta_mean_motion": 15.65432481,
        "meta_eccentricity": 0.00016484,
        "meta_inclination": 42.9997,
        "meta_ra_of_asc_node": 132.5781,
        "meta_arg_of_pericenter": 269.3514,
        "meta_mean_anomaly": 90.7492,
        "meta_ephemeris_type": 0,
        "meta_classification_type": "U",
        "meta_norad_cat_id": 66477,
        "meta_element_set_no": 999,
        "meta_rev_at_epoch": 395,
        "meta_bstar": -0.023372632,
        "meta_mean_motion_dot": -0.02099086,
        "meta_mean_motion_ddot": 0,
        "tle_line1": "1 66477U 25262X   25336.25003472 -.02099086  00000+0 -23373-1 0  9993",
        "tle_line2": "2 66477  42.9997 132.5781 0001648 269.3514  90.7492 15.65432481  3955"
      },
      "geometry": {
        "type": "Point",
        "coordinates": [
          -75.42193793331035,
          21.899748820459124
        ]
      }
    },
    {
      "type": "Feature",
      "properties": {
        "norad_id": 66478,
        "name": "STARLINK-35283",
        "group": "last-30-days",
        "lat": 20.713798397254486,
        "lon": -73.81248136846733,
        "alt_km": 374.9498672565978,
        "timestamp": "2025-12-02T15:49:05.948788+00:00",
        "meta_object_name": "STARLINK-35283",
        "meta_object_id": "2025-262Y",
        "meta_epoch": "2025-12-02T06:00:02.999808",
        "meta_mean_motion": 15.65436307,
        "meta_eccentricity": 0.0001847,
        "meta_inclination": 42.9995,
        "meta_ra_of_asc_node": 132.573,
        "meta_arg_of_pericenter": 270.2046,
        "meta_mean_anomaly": 91.8095,
        "meta_ephemeris_type": 0,
        "meta_classification_type": "U",
        "meta_norad_cat_id": 66478,
        "meta_element_set_no": 999,
        "meta_rev_at_epoch": 395,
        "meta_bstar": -0.023423281,
        "meta_mean_motion_dot": -0.02103506,
        "meta_mean_motion_ddot": 0,
        "tle_line1": "1 66478U 25262Y   25336.25003472 -.02103506  00000+0 -23423-1 0  9993",
        "tle_line2": "2 66478  42.9995 132.5730 0001847 270.2046  91.8095 15.65436307  3952"
      },
      "geometry": {
        "type": "Point",
        "coordinates": [
          -73.81248136846733,
          20.713798397254486
        ]
      }
    },
    {
      "type": "Feature",
      "properties": {
        "norad_id": 66479,
        "name": "STARLINK-35581",
        "group": "last-30-days",
        "lat": 23.072383390455403,
        "lon": -77.06304415684255,
        "alt_km": 374.66906759050835,
        "timestamp": "2025-12-02T15:49:05.948798+00:00",
        "meta_object_name": "STARLINK-35581",
        "meta_object_id": "2025-262Z",
        "meta_epoch": "2025-12-02T06:00:02.999808",
        "meta_mean_motion": 15.65429513,
        "meta_eccentricity": 0.00017448,
        "meta_inclination": 42.9997,
        "meta_ra_of_asc_node": 132.5825,
        "meta_arg_of_pericenter": 273.5568,
        "meta_mean_anomaly": 84.6238,
        "meta_ephemeris_type": 0,
        "meta_classification_type": "U",
        "meta_norad_cat_id": 66479,
        "meta_element_set_no": 999,
        "meta_rev_at_epoch": 395,
        "meta_bstar": -0.023287412,
        "meta_mean_motion_dot": -0.02092283,
        "meta_mean_motion_ddot": 0,
        "tle_line1": "1 66479U 25262Z   25336.25003472 -.02092283  00000+0 -23287-1 0  9991",
        "tle_line2": "2 66479  42.9997 132.5825 0001744 273.5568  84.6238 15.65429513  3951"
      },
      "geometry": {
        "type": "Point",
        "coordinates": [
          -77.06304415684255,
          23.072383390455403
        ]
      }
    },
    {
      "type": "Feature",
      "properties": {
        "norad_id": 66480,
        "name": "STARLINK-35670",
        "group": "last-30-days",
        "lat": 19.512111374743974,
        "lon": -72.2271527541819,
        "alt_km": 375.0672201337129,
        "timestamp": "2025-12-02T15:49:05.948808+00:00",
        "meta_object_name": "STARLINK-35670",
        "meta_object_id": "2025-262AA",
        "meta_epoch": "2025-12-02T06:00:02.999808",
        "meta_mean_motion": 15.65434308,
        "meta_eccentricity": 0.00018385,
        "meta_inclination": 42.9994,
        "meta_ra_of_asc_node": 132.5677,
        "meta_arg_of_pericenter": 269.6428,
        "meta_mean_anomaly": 94.285,
        "meta_ephemeris_type": 0,
        "meta_classification_type": "U",
        "meta_norad_cat_id": 66480,
        "meta_element_set_no": 999,
        "meta_rev_at_epoch": 395,
        "meta_bstar": -0.023336852,
        "meta_mean_motion_dot": -0.02096591,
        "meta_mean_motion_ddot": 0,
        "tle_line1": "1 66480U 25262AA  25336.25003472 -.02096591  00000+0 -23337-1 0  9995",
        "tle_line2": "2 66480  42.9994 132.5677 0001838 269.6428  94.2850 15.65434308  3955"
      },
      "geometry": {
        "type": "Point",
        "coordinates": [
          -72.2271527541819,
          19.512111374743974
        ]
      }
    },
    {
      "type": "Feature",
      "properties": {
        "norad_id": 66481,
        "name": "STARLINK-35698",
        "group": "last-30-days",
        "lat": 18.294185404093703,
        "lon": -70.66188352835636,
        "alt_km": 375.2309853704455,
        "timestamp": "2025-12-02T15:49:05.948818+00:00",
        "meta_object_name": "STARLINK-35698",
        "meta_object_id": "2025-262AB",
        "meta_epoch": "2025-12-02T06:00:02.999808",
        "meta_mean_motion": 15.65432483,
        "meta_eccentricity": 0.00017131,
        "meta_inclination": 42.9994,
        "meta_ra_of_asc_node": 132.5626,
        "meta_arg_of_pericenter": 271.733,
        "meta_mean_anomaly": 94.1164,
        "meta_ephemeris_type": 0,
        "meta_classification_type": "U",
        "meta_norad_cat_id": 66481,
        "meta_element_set_no": 999,
        "meta_rev_at_epoch": 395,
        "meta_bstar": -0.023350582,
        "meta_mean_motion_dot": -0.02097419,
        "meta_mean_motion_ddot": 0,
        "tle_line1": "1 66481U 25262AB  25336.25003472 -.02097419  00000+0 -23351-1 0  9992",
        "tle_line2": "2 66481  42.9994 132.5626 0001713 271.7330  94.1164 15.65432483  3957"
      },
      "geometry": {
        "type": "Point",
        "coordinates": [
          -70.66188352835636,
          18.294185404093703
        ]
      }
    },
    {
      "type": "Feature",
      "properties": {
        "norad_id": 66482,
        "name": "STARLINK-35648",
        "group": "last-30-days",
        "lat": 17.065831312168672,
        "lon": -69.12091632828754,
        "alt_km": 375.3676587564951,
        "timestamp": "2025-12-02T15:49:05.948828+00:00",
        "meta_object_name": "STARLINK-35648",
        "meta_object_id": "2025-262AC",
        "meta_epoch": "2025-12-02T06:00:02.999808",
        "meta_mean_motion": 15.65430208,
        "meta_eccentricity": 0.00017253,
        "meta_inclination": 42.9994,
        "meta_ra_of_asc_node": 132.558,
        "meta_arg_of_pericenter": 271.2826,
        "meta_mean_anomaly": 96.4829,
        "meta_ephemeris_type": 0,
        "meta_classification_type": "U",
        "meta_norad_cat_id": 66482,
        "meta_element_set_no": 999,
        "meta_rev_at_epoch": 379,
        "meta_bstar": -0.023283805,
        "meta_mean_motion_dot": -0.02092036,
        "meta_mean_motion_ddot": 0,
        "tle_line1": "1 66482U 25262AC  25336.25003472 -.02092036  00000+0 -23284-1 0  9998",
        "tle_line2": "2 66482  42.9994 132.5580 0001725 271.2826  96.4829 15.65430208  3793"
      },
      "geometry": {
        "type": "Point",
        "coordinates": [
          -69.12091632828754,
          17.065831312168672
        ]
      }
    },
    {
      "type": "Feature",
      "properties": {
        "norad_id": 66483,
        "name": "STARLINK-35654",
        "group": "last-30-days",
        "lat": 15.825571825130345,
        "lon": -67.60094206729062,
        "alt_km": 375.57035432411703,
        "timestamp": "2025-12-02T15:49:05.948840+00:00",
        "meta_object_name": "STARLINK-35654",
        "meta_object_id": "2025-262AD",
        "meta_epoch": "2025-12-02T06:00:02.999808",
        "meta_mean_motion": 15.65433163,
        "meta_eccentricity": 0.00017574,
        "meta_inclination": 42.9995,
        "meta_ra_of_asc_node": 132.5522,
        "meta_arg_of_pericenter": 272.5291,
        "meta_mean_anomaly": 97.154,
        "meta_ephemeris_type": 0,
        "meta_classification_type": "U",
        "meta_norad_cat_id": 66483,
        "meta_element_set_no": 999,
        "meta_rev_at_epoch": 395,
        "meta_bstar": -0.023359947,
        "meta_mean_motion_dot": -0.0209824,
        "meta_mean_motion_ddot": 0,
        "tle_line1": "1 66483U 25262AD  25336.25003472 -.02098240  00000+0 -23360-1 0  9997",
        "tle_line2": "2 66483  42.9995 132.5522 0001757 272.5291  97.1540 15.65433163  3955"
      },
      "geometry": {
        "type": "Point",
        "coordinates": [
          -67.60094206729062,
          15.825571825130345
        ]
      }
    }
  ]
}